KUIPER-00130            
1 65959U 25228N   25316.58148904  .00071849  00000+0  20815-2 0  9995
2 65959  51.8747 165.9163 0003986 250.5643 109.4913 15.34903821  5783
KUIPER-00134            
1 65960U 25228P   25316.90879830  .00049799  00000+0  14511-2 0  9997
2 65960  51.8814 164.3587 0005733 257.2442 102.7904 15.34877913  5830
KUIPER-00135            
1 65961U 25228Q   25316.58288773  .00054769  00000+0  15929-2 0  9999
2 65961  51.8773 165.9354 0003856 239.8289 120.2315 15.34903323  5783
KUIPER-00136            
1 65962U 25228R   25316.57541091  .00060757  00000+0  17491-2 0  9994
2 65962  51.8753 165.8843 0004091 231.5110 128.5509 15.35176694  5788
KUIPER-00137            
1 65963U 25228S   25316.84274677  .00079705  00000+0  23099-2 0  9992
2 65963  51.8795 164.6754 0004794 249.0780 110.9693 15.34840177  5827
KUIPER-00138            
1 65964U 25228T   25316.84640164  .00026291  00000+0  77927-3 0  9993
2 65964  51.8788 164.6925 0006170 266.3607  93.6673 15.34650938  5829
KUIPER-00140            
1 65965U 25228U   25316.84749407  .00059561  00000+0  17546-2 0  9990
2 65965  51.8850 164.7045 0005967 263.3969  96.6337 15.34454089  5824
KUIPER-00141            
1 65966U 25228V   25316.96893533  .00053054  00000+0  15323-2 0  9996
2 65966  51.8813 164.0131 0006416 248.1803 111.8500 15.35125022  5848
KUIPER-00146            
1 65967U 25228W   25316.31901203  .00085723  00000+0  24793-2 0  9999
2 65967  51.8783 167.1661 0005414 243.5986 116.4444 15.34865054  5747
KUIPER-00149            
1 65968U 25228X   25316.31510304  .00096473  00000+0  27530-2 0  9994
2 65968  51.8781 167.1336 0004605 238.5809 121.4727 15.35230071  5740
KUIPER-00154            
1 65969U 25228Y   25316.96499293  .00051257  00000+0  14812-2 0  9999
2 65969  51.8748 163.9908 0006206 237.4960 122.5426 15.35124236  5842
KUIPER-00157            
1 65970U 25228Z   25316.90888139  .00076516  00000+0  22193-2 0  9992
2 65970  51.8752 164.3659 0004971 264.9072  95.1346 15.34832610  5839
